STARLINK-36870          
1 67897U 26035U   26071.58335648  .00019001  00000+0  99748-4 0  9992
2 67897  97.2736   4.1090 0000660  89.9827  92.4038 15.80810327  4221
STARLINK-36810          
1 67898U 26035V   26071.58335648 -.00076958  00000+0 -40392-3 0  9999
2 67898  97.2753   4.1108 0001281  76.6068 110.0392 15.80851577  4223
STARLINK-36878          
1 67899U 26035W   26071.58335648 -.00100531  00000+0 -52893-3 0  9994
2 67899  97.2726   4.1139 0000708  95.7759  99.4197 15.80868098  4229
STARLINK-36361          
1 67900U 26035X   26071.58335648 -.00029967  00000+0 -15589-3 0  9991
2 67900  97.2756   4.1162 0001586  90.5695 108.8576 15.80864170  4221
STARLINK-36336          
1 67901U 26035Y   26071.58335648 -.00117875  00000+0 -62186-3 0  9993
2 67901  97.2765   4.1231 0001635  90.3525 121.9677 15.80854242  4276
STARLINK-36876          
1 67902U 26035Z   26071.58335648 -.00158924  00000+0 -84107-3 0  9991
2 67902  97.2763   4.1195 0001570  97.4855 106.2677 15.80894004  4227
STARLINK-36257          
1 67903U 26035AA  26071.58335648 -.00154240  00000+0 -81616-3 0  9991
2 67903  97.2764   4.1205 0001219 104.6639 103.3621 15.80886546  4276
STARLINK-36814          
1 67904U 26036A   26071.58335648 -.01957024  00000+0 -23299-1 0  9996
2 67904  42.9994 232.4457 0001642 274.1828 112.2900 15.63521059  4115
STARLINK-36729          
1 67905U 26036B   26071.58335648 -.01947440  00000+0 -15611-1 0  9997
2 67905  42.9991 232.1530 0001300 281.3434 222.2125 15.73029880  4113
STARLINK-36763          
1 67906U 26036C   26071.58335648 -.01920634  00000+0 -15088-1 0  9992
2 67906  42.9991 232.1251 0001141 270.7558 243.9823 15.73985471  4118
STARLINK-36742          
1 67907U 26036D   26071.58335648 -.01960442  00000+0 -15702-1 0  9997
2 67907  42.9991 232.1312 0001321 276.8382 235.4436 15.73068196  4111
STARLINK-36827          
1 67908U 26036E   26070.72916292 -.00383796  00000+0 -19292-2 0  9992
2 67908  42.9978 237.2677 0002912 148.3288 211.7759 15.81703157  3994
