CCSDS_OMM_VERS = 2.0
CREATION_DATE  = 
ORIGINATOR     = 

OBJECT_NAME    = STARLINK-36870
OBJECT_ID      = 2026-035U
CENTER_NAME    = EARTH
REF_FRAME      = TEME
TIME_SYSTEM    = UTC
MEAN_ELEMENT_THEORY = SGP/SGP4

EPOCH          = 2026-03-12T14:00:01.999872
MEAN_MOTION    = 15.80810327
ECCENTRICITY   = .00006602
INCLINATION    = 97.2736
RA_OF_ASC_NODE = 4.1090
ARG_OF_PERICENTER = 89.9827
MEAN_ANOMALY   = 92.4038

EPHEMERIS_TYPE = 0
CLASSIFICATION_TYPE = U
NORAD_CAT_ID   = 67897
ELEMENT_SET_NO = 999
REV_AT_EPOCH   = 422
BSTAR          = .99748452E-4
MEAN_MOTION_DOT = .19001E-3
MEAN_MOTION_DDOT = 0

CCSDS_OMM_VERS = 2.0
CREATION_DATE  = 
ORIGINATOR     = 

OBJECT_NAME    = STARLINK-36810
OBJECT_ID      = 2026-035V
CENTER_NAME    = EARTH
REF_FRAME      = TEME
TIME_SYSTEM    = UTC
MEAN_ELEMENT_THEORY = SGP/SGP4

EPOCH          = 2026-03-12T14:00:01.999872
MEAN_MOTION    = 15.80851577
ECCENTRICITY   = .0001281
INCLINATION    = 97.2753
RA_OF_ASC_NODE = 4.1108
ARG_OF_PERICENTER = 76.6068
MEAN_ANOMALY   = 110.0392

EPHEMERIS_TYPE = 0
CLASSIFICATION_TYPE = U
NORAD_CAT_ID   = 67898
ELEMENT_SET_NO = 999
REV_AT_EPOCH   = 422
BSTAR          = -.40392238E-3
MEAN_MOTION_DOT = -.76958E-3
MEAN_MOTION_DDOT = 0

CCSDS_OMM_VERS = 2.0
CREATION_DATE  = 
ORIGINATOR     = 

OBJECT_NAME    = STARLINK-36878
OBJECT_ID      = 2026-035W
CENTER_NAME    = EARTH
REF_FRAME      = TEME
TIME_SYSTEM    = UTC
MEAN_ELEMENT_THEORY = SGP/SGP4

EPOCH          = 2026-03-12T14:00:01.999872
MEAN_MOTION    = 15.80868098
ECCENTRICITY   = .00007086
INCLINATION    = 97.2726
RA_OF_ASC_NODE = 4.1139
ARG_OF_PERICENTER = 95.7759
MEAN_ANOMALY   = 99.4197

EPHEMERIS_TYPE = 0
CLASSIFICATION_TYPE = U
NORAD_CAT_ID   = 67899
ELEMENT_SET_NO = 999
REV_AT_EPOCH   = 422
BSTAR          = -.52893163E-3
MEAN_MOTION_DOT = -.100531E-2
MEAN_MOTION_DDOT = 0

CCSDS_OMM_VERS = 2.0
CREATION_DATE  = 
ORIGINATOR     = 

OBJECT_NAME    = STARLINK-36361
OBJECT_ID      = 2026-035X
CENTER_NAME    = EARTH
REF_FRAME      = TEME
TIME_SYSTEM    = UTC
MEAN_ELEMENT_THEORY = SGP/SGP4

EPOCH          = 2026-03-12T14:00:01.999872
MEAN_MOTION    = 15.80864170
ECCENTRICITY   = .00015868
INCLINATION    = 97.2756
RA_OF_ASC_NODE = 4.1162
ARG_OF_PERICENTER = 90.5695
MEAN_ANOMALY   = 108.8576

EPHEMERIS_TYPE = 0
CLASSIFICATION_TYPE = U
NORAD_CAT_ID   = 67900
ELEMENT_SET_NO = 999
REV_AT_EPOCH   = 422
BSTAR          = -.15589329E-3
MEAN_MOTION_DOT = -.29967E-3
MEAN_MOTION_DDOT = 0

CCSDS_OMM_VERS = 2.0
CREATION_DATE  = 
ORIGINATOR     = 

OBJECT_NAME    = STARLINK-36336
OBJECT_ID      = 2026-035Y
CENTER_NAME    = EARTH
REF_FRAME      = TEME
TIME_SYSTEM    = UTC
MEAN_ELEMENT_THEORY = SGP/SGP4

EPOCH          = 2026-03-12T14:00:01.999872
MEAN_MOTION    = 15.80854242
ECCENTRICITY   = .00016359
INCLINATION    = 97.2765
RA_OF_ASC_NODE = 4.1231
ARG_OF_PERICENTER = 90.3525
MEAN_ANOMALY   = 121.9677

EPHEMERIS_TYPE = 0
CLASSIFICATION_TYPE = U
NORAD_CAT_ID   = 67901
ELEMENT_SET_NO = 999
REV_AT_EPOCH   = 427
BSTAR          = -.62185539E-3
MEAN_MOTION_DOT = -.117875E-2
MEAN_MOTION_DDOT = 0

CCSDS_OMM_VERS = 2.0
CREATION_DATE  = 
ORIGINATOR     = 

OBJECT_NAME    = STARLINK-36876
OBJECT_ID      = 2026-035Z
CENTER_NAME    = EARTH
REF_FRAME      = TEME
TIME_SYSTEM    = UTC
MEAN_ELEMENT_THEORY = SGP/SGP4

EPOCH          = 2026-03-12T14:00:01.999872
MEAN_MOTION    = 15.80894004
ECCENTRICITY   = .00015708
INCLINATION    = 97.2763
RA_OF_ASC_NODE = 4.1195
ARG_OF_PERICENTER = 97.4855
MEAN_ANOMALY   = 106.2677

EPHEMERIS_TYPE = 0
CLASSIFICATION_TYPE = U
NORAD_CAT_ID   = 67902
ELEMENT_SET_NO = 999
REV_AT_EPOCH   = 422
BSTAR          = -.84107317E-3
MEAN_MOTION_DOT = -.158924E-2
MEAN_MOTION_DDOT = 0

CCSDS_OMM_VERS = 2.0
CREATION_DATE  = 
ORIGINATOR     = 

OBJECT_NAME    = STARLINK-36257
OBJECT_ID      = 2026-035AA
CENTER_NAME    = EARTH
REF_FRAME      = TEME
TIME_SYSTEM    = UTC
MEAN_ELEMENT_THEORY = SGP/SGP4

EPOCH          = 2026-03-12T14:00:01.999872
MEAN_MOTION    = 15.80886546
ECCENTRICITY   = .00012199
INCLINATION    = 97.2764
RA_OF_ASC_NODE = 4.1205
ARG_OF_PERICENTER = 104.6639
MEAN_ANOMALY   = 103.3621

EPHEMERIS_TYPE = 0
CLASSIFICATION_TYPE = U
NORAD_CAT_ID   = 67903
ELEMENT_SET_NO = 999
REV_AT_EPOCH   = 427
BSTAR          = -.81615555E-3
MEAN_MOTION_DOT = -.15424E-2
MEAN_MOTION_DDOT = 0

CCSDS_OMM_VERS = 2.0
CREATION_DATE  = 
ORIGINATOR     = 

OBJECT_NAME    = STARLINK-36814
OBJECT_ID      = 2026-036A
CENTER_NAME    = EARTH
REF_FRAME      = TEME
TIME_SYSTEM    = UTC
MEAN_ELEMENT_THEORY = SGP/SGP4

EPOCH          = 2026-03-12T14:00:01.999872
MEAN_MOTION    = 15.63521059
ECCENTRICITY   = .0001642
INCLINATION    = 42.9994
RA_OF_ASC_NODE = 232.4457
ARG_OF_PERICENTER = 274.1828
MEAN_ANOMALY   = 112.2900

EPHEMERIS_TYPE = 0
CLASSIFICATION_TYPE = U
NORAD_CAT_ID   = 67904
ELEMENT_SET_NO = 999
REV_AT_EPOCH   = 411
BSTAR          = -.23298526E-1
MEAN_MOTION_DOT = -.1957024E-1
MEAN_MOTION_DDOT = 0

CCSDS_OMM_VERS = 2.0
CREATION_DATE  = 
ORIGINATOR     = 

OBJECT_NAME    = STARLINK-36729
OBJECT_ID      = 2026-036B
CENTER_NAME    = EARTH
REF_FRAME      = TEME
TIME_SYSTEM    = UTC
MEAN_ELEMENT_THEORY = SGP/SGP4

EPOCH          = 2026-03-12T14:00:01.999872
MEAN_MOTION    = 15.73029880
ECCENTRICITY   = .00013006
INCLINATION    = 42.9991
RA_OF_ASC_NODE = 232.1530
ARG_OF_PERICENTER = 281.3434
MEAN_ANOMALY   = 222.2125

EPHEMERIS_TYPE = 0
CLASSIFICATION_TYPE = U
NORAD_CAT_ID   = 67905
ELEMENT_SET_NO = 999
REV_AT_EPOCH   = 411
BSTAR          = -.15610699E-1
MEAN_MOTION_DOT = -.194744E-1
MEAN_MOTION_DDOT = 0

CCSDS_OMM_VERS = 2.0
CREATION_DATE  = 
ORIGINATOR     = 

OBJECT_NAME    = STARLINK-36763
OBJECT_ID      = 2026-036C
CENTER_NAME    = EARTH
REF_FRAME      = TEME
TIME_SYSTEM    = UTC
MEAN_ELEMENT_THEORY = SGP/SGP4

EPOCH          = 2026-03-12T14:00:01.999872
MEAN_MOTION    = 15.73985471
ECCENTRICITY   = .00011414
INCLINATION    = 42.9991
RA_OF_ASC_NODE = 232.1251
ARG_OF_PERICENTER = 270.7558
MEAN_ANOMALY   = 243.9823

EPHEMERIS_TYPE = 0
CLASSIFICATION_TYPE = U
NORAD_CAT_ID   = 67906
ELEMENT_SET_NO = 999
REV_AT_EPOCH   = 411
BSTAR          = -.15087686E-1
MEAN_MOTION_DOT = -.1920634E-1
MEAN_MOTION_DDOT = 0

CCSDS_OMM_VERS = 2.0
CREATION_DATE  = 
ORIGINATOR     = 

OBJECT_NAME    = STARLINK-36742
OBJECT_ID      = 2026-036D
CENTER_NAME    = EARTH
REF_FRAME      = TEME
TIME_SYSTEM    = UTC
MEAN_ELEMENT_THEORY = SGP/SGP4

EPOCH          = 2026-03-12T14:00:01.999872
MEAN_MOTION    = 15.73068196
ECCENTRICITY   = .00013217
INCLINATION    = 42.9991
RA_OF_ASC_NODE = 232.1312
ARG_OF_PERICENTER = 276.8382
MEAN_ANOMALY   = 235.4436

EPHEMERIS_TYPE = 0
CLASSIFICATION_TYPE = U
NORAD_CAT_ID   = 67907
ELEMENT_SET_NO = 999
REV_AT_EPOCH   = 411
BSTAR          = -.15702282E-1
MEAN_MOTION_DOT = -.1960442E-1
MEAN_MOTION_DDOT = 0

CCSDS_OMM_VERS = 2.0
CREATION_DATE  = 
ORIGINATOR     = 

OBJECT_NAME    = STARLINK-36827
OBJECT_ID      = 2026-036E
CENTER_NAME    = EARTH
REF_FRAME      = TEME
TIME_SYSTEM    = UTC
MEAN_ELEMENT_THEORY = SGP/SGP4

EPOCH          = 2026-03-11T17:29:59.676288
MEAN_MOTION    = 15.81703157
ECCENTRICITY   = .00029127
INCLINATION    = 42.9978
RA_OF_ASC_NODE = 237.2677
ARG_OF_PERICENTER = 148.3288
MEAN_ANOMALY   = 211.7759

EPHEMERIS_TYPE = 0
CLASSIFICATION_TYPE = U
NORAD_CAT_ID   = 67908
ELEMENT_SET_NO = 999
REV_AT_EPOCH   = 399
BSTAR          = -.19292289E-2
MEAN_MOTION_DOT = -.383796E-2
MEAN_MOTION_DDOT = 0

